CCSDS_OMM_VERS = 2.0
CREATION_DATE  = 
ORIGINATOR     = 

OBJECT_NAME    = STARLINK-36956
OBJECT_ID      = 2026-039Z
CENTER_NAME    = EARTH
REF_FRAME      = TEME
TIME_SYSTEM    = UTC
MEAN_ELEMENT_THEORY = SGP/SGP4

EPOCH          = 2026-03-09T10:00:01.999584
MEAN_MOTION    = 15.87613008
ECCENTRICITY   = .000169
INCLINATION    = 42.9972
RA_OF_ASC_NODE = 56.4048
ARG_OF_PERICENTER = 270.9588
MEAN_ANOMALY   = 99.2751

EPHEMERIS_TYPE = 0
CLASSIFICATION_TYPE = U
NORAD_CAT_ID   = 68009
ELEMENT_SET_NO = 999
REV_AT_EPOCH   = 283
BSTAR          = -.61939E-2
MEAN_MOTION_DOT = -.1510735E-1
MEAN_MOTION_DDOT = 0

CCSDS_OMM_VERS = 2.0
CREATION_DATE  = 
ORIGINATOR     = 

OBJECT_NAME    = STARLINK-36953
OBJECT_ID      = 2026-039AA
CENTER_NAME    = EARTH
REF_FRAME      = TEME
TIME_SYSTEM    = UTC
MEAN_ELEMENT_THEORY = SGP/SGP4

EPOCH          = 2026-03-09T10:00:01.999584
MEAN_MOTION    = 15.87871615
ECCENTRICITY   = .0001754
INCLINATION    = 42.9972
RA_OF_ASC_NODE = 56.3864
ARG_OF_PERICENTER = 277.1019
MEAN_ANOMALY   = 100.2417

EPHEMERIS_TYPE = 0
CLASSIFICATION_TYPE = U
NORAD_CAT_ID   = 68010
ELEMENT_SET_NO = 999
REV_AT_EPOCH   = 283
BSTAR          = -.62039E-2
MEAN_MOTION_DOT = -.1530421E-1
MEAN_MOTION_DDOT = 0

CCSDS_OMM_VERS = 2.0
CREATION_DATE  = 
ORIGINATOR     = 

OBJECT_NAME    = STARLINK-36991
OBJECT_ID      = 2026-039AB
CENTER_NAME    = EARTH
REF_FRAME      = TEME
TIME_SYSTEM    = UTC
MEAN_ELEMENT_THEORY = SGP/SGP4

EPOCH          = 2026-03-09T10:00:01.999584
MEAN_MOTION    = 15.87996830
ECCENTRICITY   = .0001804
INCLINATION    = 42.9971
RA_OF_ASC_NODE = 56.3777
ARG_OF_PERICENTER = 275.6861
MEAN_ANOMALY   = 105.1723

EPHEMERIS_TYPE = 0
CLASSIFICATION_TYPE = U
NORAD_CAT_ID   = 68011
ELEMENT_SET_NO = 999
REV_AT_EPOCH   = 283
BSTAR          = -.61618E-2
MEAN_MOTION_DOT = -.1529791E-1
MEAN_MOTION_DDOT = 0

CCSDS_OMM_VERS = 2.0
CREATION_DATE  = 
ORIGINATOR     = 

OBJECT_NAME    = STARLINK-36936
OBJECT_ID      = 2026-039AC
CENTER_NAME    = EARTH
REF_FRAME      = TEME
TIME_SYSTEM    = UTC
MEAN_ELEMENT_THEORY = SGP/SGP4

EPOCH          = 2026-03-09T10:00:01.999584
MEAN_MOTION    = 15.88259031
ECCENTRICITY   = .000169
INCLINATION    = 42.9971
RA_OF_ASC_NODE = 56.3597
ARG_OF_PERICENTER = 276.5551
MEAN_ANOMALY   = 111.2502

EPHEMERIS_TYPE = 0
CLASSIFICATION_TYPE = U
NORAD_CAT_ID   = 68012
ELEMENT_SET_NO = 999
REV_AT_EPOCH   = 283
BSTAR          = -.61214E-2
MEAN_MOTION_DOT = -.1538701E-1
MEAN_MOTION_DDOT = 0

CCSDS_OMM_VERS = 2.0
CREATION_DATE  = 
ORIGINATOR     = 

OBJECT_NAME    = STARLINK-36967
OBJECT_ID      = 2026-039AD
CENTER_NAME    = EARTH
REF_FRAME      = TEME
TIME_SYSTEM    = UTC
MEAN_ELEMENT_THEORY = SGP/SGP4

EPOCH          = 2026-03-09T10:00:01.999584
MEAN_MOTION    = 15.87747633
ECCENTRICITY   = .0001722
INCLINATION    = 42.9970
RA_OF_ASC_NODE = 56.3952
ARG_OF_PERICENTER = 271.6878
MEAN_ANOMALY   = 102.0529

EPHEMERIS_TYPE = 0
CLASSIFICATION_TYPE = U
NORAD_CAT_ID   = 68013
ELEMENT_SET_NO = 999
REV_AT_EPOCH   = 283
BSTAR          = -.6182E-2
MEAN_MOTION_DOT = -.1517246E-1
MEAN_MOTION_DDOT = 0

CCSDS_OMM_VERS = 2.0
CREATION_DATE  = 
ORIGINATOR     = 

OBJECT_NAME    = STARLINK-36985
OBJECT_ID      = 2026-039AE
CENTER_NAME    = EARTH
REF_FRAME      = TEME
TIME_SYSTEM    = UTC
MEAN_ELEMENT_THEORY = SGP/SGP4

EPOCH          = 2026-03-09T10:00:01.999584
MEAN_MOTION    = 15.88129771
ECCENTRICITY   = .0001719
INCLINATION    = 42.9971
RA_OF_ASC_NODE = 56.3691
ARG_OF_PERICENTER = 276.7369
MEAN_ANOMALY   = 107.5430

EPHEMERIS_TYPE = 0
CLASSIFICATION_TYPE = U
NORAD_CAT_ID   = 68014
ELEMENT_SET_NO = 999
REV_AT_EPOCH   = 283
BSTAR          = -.6096E-2
MEAN_MOTION_DOT = -.1524294E-1
MEAN_MOTION_DDOT = 0

CCSDS_OMM_VERS = 2.0
CREATION_DATE  = 
ORIGINATOR     = 

OBJECT_NAME    = STARLINK-36335
OBJECT_ID      = 2026-040A
CENTER_NAME    = EARTH
REF_FRAME      = TEME
TIME_SYSTEM    = UTC
MEAN_ELEMENT_THEORY = SGP/SGP4

EPOCH          = 2026-03-09T10:00:01.999584
MEAN_MOTION    = 16.05780931
ECCENTRICITY   = .0001053
INCLINATION    = 97.2795
RA_OF_ASC_NODE = 16.5616
ARG_OF_PERICENTER = 118.5771
MEAN_ANOMALY   = 222.6723

EPHEMERIS_TYPE = 0
CLASSIFICATION_TYPE = U
NORAD_CAT_ID   = 68015
ELEMENT_SET_NO = 999
REV_AT_EPOCH   = 233
BSTAR          = -.13472E-2
MEAN_MOTION_DOT = -.955837E-2
MEAN_MOTION_DDOT = .32263E-3

CCSDS_OMM_VERS = 2.0
CREATION_DATE  = 
ORIGINATOR     = 

OBJECT_NAME    = STARLINK-36923
OBJECT_ID      = 2026-040B
CENTER_NAME    = EARTH
REF_FRAME      = TEME
TIME_SYSTEM    = UTC
MEAN_ELEMENT_THEORY = SGP/SGP4

EPOCH          = 2026-03-09T10:00:01.999584
MEAN_MOTION    = 16.06020015
ECCENTRICITY   = .0000886
INCLINATION    = 97.2796
RA_OF_ASC_NODE = 16.5641
ARG_OF_PERICENTER = 95.1053
MEAN_ANOMALY   = 250.9398

EPHEMERIS_TYPE = 0
CLASSIFICATION_TYPE = U
NORAD_CAT_ID   = 68016
ELEMENT_SET_NO = 999
REV_AT_EPOCH   = 237
BSTAR          = -.12911E-2
MEAN_MOTION_DOT = -.929722E-2
MEAN_MOTION_DDOT = .3074E-3

CCSDS_OMM_VERS = 2.0
CREATION_DATE  = 
ORIGINATOR     = 

OBJECT_NAME    = STARLINK-36568
OBJECT_ID      = 2026-040C
CENTER_NAME    = EARTH
REF_FRAME      = TEME
TIME_SYSTEM    = UTC
MEAN_ELEMENT_THEORY = SGP/SGP4

EPOCH          = 2026-03-09T10:00:01.999584
MEAN_MOTION    = 16.06136534
ECCENTRICITY   = .0000909
INCLINATION    = 97.2794
RA_OF_ASC_NODE = 16.5650
ARG_OF_PERICENTER = 95.1578
MEAN_ANOMALY   = 253.0980

EPHEMERIS_TYPE = 0
CLASSIFICATION_TYPE = U
NORAD_CAT_ID   = 68017
ELEMENT_SET_NO = 999
REV_AT_EPOCH   = 237
BSTAR          = -.12942E-2
MEAN_MOTION_DOT = -.93861E-2
MEAN_MOTION_DDOT = .31332E-3

CCSDS_OMM_VERS = 2.0
CREATION_DATE  = 
ORIGINATOR     = 

OBJECT_NAME    = STARLINK-36930
OBJECT_ID      = 2026-040D
CENTER_NAME    = EARTH
REF_FRAME      = TEME
TIME_SYSTEM    = UTC
MEAN_ELEMENT_THEORY = SGP/SGP4

EPOCH          = 2026-03-09T10:00:01.999584
MEAN_MOTION    = 16.05903579
ECCENTRICITY   = .0000918
INCLINATION    = 97.2794
RA_OF_ASC_NODE = 16.5630
ARG_OF_PERICENTER = 96.7577
MEAN_ANOMALY   = 246.8758

EPHEMERIS_TYPE = 0
CLASSIFICATION_TYPE = U
NORAD_CAT_ID   = 68018
ELEMENT_SET_NO = 999
REV_AT_EPOCH   = 237
BSTAR          = -.13209E-2
MEAN_MOTION_DOT = -.944324E-2
MEAN_MOTION_DDOT = .31595E-3

CCSDS_OMM_VERS = 2.0
CREATION_DATE  = 
ORIGINATOR     = 

OBJECT_NAME    = STARLINK-36921
OBJECT_ID      = 2026-040E
CENTER_NAME    = EARTH
REF_FRAME      = TEME
TIME_SYSTEM    = UTC
MEAN_ELEMENT_THEORY = SGP/SGP4

EPOCH          = 2026-03-08T22:00:01.999584
MEAN_MOTION    = 16.07183422
ECCENTRICITY   = .00009459
INCLINATION    = 97.2798
RA_OF_ASC_NODE = 16.0187
ARG_OF_PERICENTER = 100.7440
MEAN_ANOMALY   = 241.4245

EPHEMERIS_TYPE = 0
CLASSIFICATION_TYPE = U
NORAD_CAT_ID   = 68019
ELEMENT_SET_NO = 999
REV_AT_EPOCH   = 229
BSTAR          = -.11770078E-2
MEAN_MOTION_DOT = -.91083E-2
MEAN_MOTION_DDOT = .30024575E-3

CCSDS_OMM_VERS = 2.0
CREATION_DATE  = 
ORIGINATOR     = 

OBJECT_NAME    = STARLINK-36928
OBJECT_ID      = 2026-040F
CENTER_NAME    = EARTH
REF_FRAME      = TEME
TIME_SYSTEM    = UTC
MEAN_ELEMENT_THEORY = SGP/SGP4

EPOCH          = 2026-03-09T10:00:01.999584
MEAN_MOTION    = 16.06224506
ECCENTRICITY   = .0001061
INCLINATION    = 97.2791
RA_OF_ASC_NODE = 16.5654
ARG_OF_PERICENTER = 103.1144
MEAN_ANOMALY   = 246.8625

EPHEMERIS_TYPE = 0
CLASSIFICATION_TYPE = U
NORAD_CAT_ID   = 68020
ELEMENT_SET_NO = 999
REV_AT_EPOCH   = 237
BSTAR          = -.12828E-2
MEAN_MOTION_DOT = -.935412E-2
MEAN_MOTION_DDOT = .31168E-3

