STARLINK-36956          
1 68009U 26039Z   26068.41668981 -.01510735  00000+0 -61939-2 0  9991
2 68009  42.9972  56.4048 0001690 270.9588  99.2751 15.87613008  2835
STARLINK-36953          
1 68010U 26039AA  26068.41668981 -.01530421  00000+0 -62039-2 0  9999
2 68010  42.9972  56.3864 0001754 277.1019 100.2417 15.87871615  2833
STARLINK-36991          
1 68011U 26039AB  26068.41668981 -.01529791  00000+0 -61618-2 0  9990
2 68011  42.9971  56.3777 0001804 275.6861 105.1723 15.87996830  2831
STARLINK-36936          
1 68012U 26039AC  26068.41668981 -.01538701  00000+0 -61214-2 0  9994
2 68012  42.9971  56.3597 0001690 276.5551 111.2502 15.88259031  2830
STARLINK-36967          
1 68013U 26039AD  26068.41668981 -.01517246  00000+0 -61820-2 0  9999
2 68013  42.9970  56.3952 0001722 271.6878 102.0529 15.87747633  2835
STARLINK-36985          
1 68014U 26039AE  26068.41668981 -.01524294  00000+0 -60960-2 0  9995
2 68014  42.9971  56.3691 0001719 276.7369 107.5430 15.88129771  2833
STARLINK-36335          
1 68015U 26040A   26068.41668981 -.00955837  32263-3 -13472-2 0  9994
2 68015  97.2795  16.5616 0001053 118.5771 222.6723 16.05780931  2337
STARLINK-36923          
1 68016U 26040B   26068.41668981 -.00929722  30740-3 -12911-2 0  9994
2 68016  97.2796  16.5641 0000886  95.1053 250.9398 16.06020015  2370
STARLINK-36568          
1 68017U 26040C   26068.41668981 -.00938610  31332-3 -12942-2 0  9993
2 68017  97.2794  16.5650 0000909  95.1578 253.0980 16.06136534  2372
STARLINK-36930          
1 68018U 26040D   26068.41668981 -.00944324  31595-3 -13209-2 0  9991
2 68018  97.2794  16.5630 0000918  96.7577 246.8758 16.05903579  2370
STARLINK-36921          
1 68019U 26040E   26067.91668981 -.00910830  30025-3 -11770-2 0  9999
2 68019  97.2798  16.0187 0000945 100.7440 241.4245 16.07183422  2294
STARLINK-36928          
1 68020U 26040F   26068.41668981 -.00935412  31168-3 -12828-2 0  9994
2 68020  97.2791  16.5654 0001061 103.1144 246.8625 16.06224506  2379
